[{"OBJECT_NAME":"GPS BIIR-2  (PRN 13)","OBJECT_ID":"1997-035A","EPOCH":"2026-03-04T00:01:54.372000","MEAN_MOTION":2.00563957,"ECCENTRICITY":0.00979337,"INCLINATION":55.9351,"RA_OF_ASC_NODE":102.6869,"ARG_OF_PERICENTER":56.2678,"MEAN_ANOMALY":304.7419,"EPHEMERIS_TYPE":0,"CLASSIFICATION_TYPE":"U","NORAD_CAT_ID":24876,"ELEMENT_SET_NO":999,"REV_AT_EPOCH":20984,"BSTAR":0,"MEAN_MOTION_DOT":2.0e-7,"MEAN_MOTION_DDOT":0},{"OBJECT_NAME":"GPS BIIR-5  (PRN 22)","OBJECT_ID":"2000-040A","EPOCH":"2026-03-03T19:59:28.570848","MEAN_MOTION":2.00568901,"ECCENTRICITY":0.01227147,"INCLINATION":54.8757,"RA_OF_ASC_NODE":219.3443,"ARG_OF_PERICENTER":302.5295,"MEAN_ANOMALY":230.0729,"EPHEMERIS_TYPE":0,"CLASSIFICATION_TYPE":"U","NORAD_CAT_ID":26407,"ELEMENT_SET_NO":999,"REV_AT_EPOCH":18783,"BSTAR":0,"MEAN_MOTION_DOT":-4.0e-8,"MEAN_MOTION_DDOT":0},{"OBJECT_NAME":"GPS BIIR-8  (PRN 16)","OBJECT_ID":"2003-005A","EPOCH":"2026-03-03T10:05:42.894240","MEAN_MOTION":2.00566304,"ECCENTRICITY":0.01487341,"INCLINATION":54.9076,"RA_OF_ASC_NODE":219.1686,"ARG_OF_PERICENTER":52.7101,"MEAN_ANOMALY":318.0754,"EPHEMERIS_TYPE":0,"CLASSIFICATION_TYPE":"U","NORAD_CAT_ID":27663,"ELEMENT_SET_NO":999,"REV_AT_EPOCH":16919,"BSTAR":0,"MEAN_MOTION_DOT":-5.0e-8,"MEAN_MOTION_DDOT":0},{"OBJECT_NAME":"GPS BIIR-11 (PRN 19)","OBJECT_ID":"2004-009A","EPOCH":"2026-03-03T22:28:18.321888","MEAN_MOTION":2.00558102,"ECCENTRICITY":0.01109397,"INCLINATION":54.9161,"RA_OF_ASC_NODE":279.9387,"ARG_OF_PERICENTER":169.0537,"MEAN_ANOMALY":10.0125,"EPHEMERIS_TYPE":0,"CLASSIFICATION_TYPE":"U","NORAD_CAT_ID":28190,"ELEMENT_SET_NO":999,"REV_AT_EPOCH":16083,"BSTAR":0,"MEAN_MOTION_DOT":-1.8e-7,"MEAN_MOTION_DDOT":0},{"OBJECT_NAME":"GPS BIIR-13 (PRN 02)","OBJECT_ID":"2004-045A","EPOCH":"2026-03-03T14:17:36.434112","MEAN_MOTION":2.00573334,"ECCENTRICITY":0.0170861,"INCLINATION":55.1952,"RA_OF_ASC_NODE":329.1518,"ARG_OF_PERICENTER":312.7942,"MEAN_ANOMALY":43.5969,"EPHEMERIS_TYPE":0,"CLASSIFICATION_TYPE":"U","NORAD_CAT_ID":28474,"ELEMENT_SET_NO":999,"REV_AT_EPOCH":15630,"BSTAR":0,"MEAN_MOTION_DOT":-9.1e-7,"MEAN_MOTION_DDOT":0},{"OBJECT_NAME":"GPS BIIRM-1 (PRN 17)","OBJECT_ID":"2005-038A","EPOCH":"2026-03-02T08:19:20.265312","MEAN_MOTION":2.00573091,"ECCENTRICITY":0.01288568,"INCLINATION":54.9646,"RA_OF_ASC_NODE":277.4881,"ARG_OF_PERICENTER":295.3112,"MEAN_ANOMALY":199.7188,"EPHEMERIS_TYPE":0,"CLASSIFICATION_TYPE":"U","NORAD_CAT_ID":28874,"ELEMENT_SET_NO":999,"REV_AT_EPOCH":14969,"BSTAR":0,"MEAN_MOTION_DOT":-1.0e-8,"MEAN_MOTION_DDOT":0},{"OBJECT_NAME":"GPS BIIRM-2 (PRN 31)","OBJECT_ID":"2006-042A","EPOCH":"2026-03-03T07:34:28.641792","MEAN_MOTION":2.00575364,"ECCENTRICITY":0.01067493,"INCLINATION":54.6983,"RA_OF_ASC_NODE":155.5433,"ARG_OF_PERICENTER":52.8742,"MEAN_ANOMALY":318.7308,"EPHEMERIS_TYPE":0,"CLASSIFICATION_TYPE":"U","NORAD_CAT_ID":29486,"ELEMENT_SET_NO":999,"REV_AT_EPOCH":14227,"BSTAR":0,"MEAN_MOTION_DOT":-4.0e-8,"MEAN_MOTION_DDOT":0},{"OBJECT_NAME":"GPS BIIRM-3 (PRN 12)","OBJECT_ID":"2006-052A","EPOCH":"2026-03-03T17:09:51.858720","MEAN_MOTION":2.00551577,"ECCENTRICITY":0.00878804,"INCLINATION":54.9574,"RA_OF_ASC_NODE":218.1844,"ARG_OF_PERICENTER":89.3488,"MEAN_ANOMALY":271.6075,"EPHEMERIS_TYPE":0,"CLASSIFICATION_TYPE":"U","NORAD_CAT_ID":29601,"ELEMENT_SET_NO":999,"REV_AT_EPOCH":14129,"BSTAR":0,"MEAN_MOTION_DOT":-5.0e-8,"MEAN_MOTION_DDOT":0},{"OBJECT_NAME":"GPS BIIRM-4 (PRN 15)","OBJECT_ID":"2007-047A","EPOCH":"2026-03-03T12:33:46.154304","MEAN_MOTION":2.00560744,"ECCENTRICITY":0.01635949,"INCLINATION":54.015,"RA_OF_ASC_NODE":84.4198,"ARG_OF_PERICENTER":85.9453,"MEAN_ANOMALY":275.986,"EPHEMERIS_TYPE":0,"CLASSIFICATION_TYPE":"U","NORAD_CAT_ID":32260,"ELEMENT_SET_NO":999,"REV_AT_EPOCH":13469,"BSTAR":0,"MEAN_MOTION_DOT":3.0e-8,"MEAN_MOTION_DDOT":0},{"OBJECT_NAME":"GPS BIIRM-5 (PRN 29)","OBJECT_ID":"2007-062A","EPOCH":"2026-03-03T13:54:58.972608","MEAN_MOTION":2.00553462,"ECCENTRICITY":0.0032908,"INCLINATION":55.1154,"RA_OF_ASC_NODE":278.3967,"ARG_OF_PERICENTER":160.6521,"MEAN_ANOMALY":8.1657,"EPHEMERIS_TYPE":0,"CLASSIFICATION_TYPE":"U","NORAD_CAT_ID":32384,"ELEMENT_SET_NO":999,"REV_AT_EPOCH":13339,"BSTAR":0,"MEAN_MOTION_DOT":-1.3e-7,"MEAN_MOTION_DDOT":0},{"OBJECT_NAME":"GPS BIIRM-6 (PRN 07)","OBJECT_ID":"2008-012A","EPOCH":"2026-03-03T10:36:06.615072","MEAN_MOTION":2.00569135,"ECCENTRICITY":0.02069181,"INCLINATION":54.4823,"RA_OF_ASC_NODE":154.1506,"ARG_OF_PERICENTER":246.1685,"MEAN_ANOMALY":111.6763,"EPHEMERIS_TYPE":0,"CLASSIFICATION_TYPE":"U","NORAD_CAT_ID":32711,"ELEMENT_SET_NO":999,"REV_AT_EPOCH":13163,"BSTAR":0,"MEAN_MOTION_DOT":-2.0e-8,"MEAN_MOTION_DDOT":0},{"OBJECT_NAME":"GPS BIIRM-8 (PRN 05)","OBJECT_ID":"2009-043A","EPOCH":"2026-03-03T22:21:33.365952","MEAN_MOTION":2.00560448,"ECCENTRICITY":0.00516954,"INCLINATION":56.1479,"RA_OF_ASC_NODE":31.5862,"ARG_OF_PERICENTER":80.7054,"MEAN_ANOMALY":288.9637,"EPHEMERIS_TYPE":0,"CLASSIFICATION_TYPE":"U","NORAD_CAT_ID":35752,"ELEMENT_SET_NO":999,"REV_AT_EPOCH":12125,"BSTAR":0,"MEAN_MOTION_DOT":-8.4e-7,"MEAN_MOTION_DDOT":0},{"OBJECT_NAME":"GPS BIIF-1  (PRN 25)","OBJECT_ID":"2010-022A","EPOCH":"2026-03-03T22:10:50.326176","MEAN_MOTION":2.00557227,"ECCENTRICITY":0.01273545,"INCLINATION":54.289,"RA_OF_ASC_NODE":212.8003,"ARG_OF_PERICENTER":65.8755,"MEAN_ANOMALY":55.1962,"EPHEMERIS_TYPE":0,"CLASSIFICATION_TYPE":"U","NORAD_CAT_ID":36585,"ELEMENT_SET_NO":999,"REV_AT_EPOCH":11548,"BSTAR":0,"MEAN_MOTION_DOT":-6.0e-8,"MEAN_MOTION_DDOT":0},{"OBJECT_NAME":"GPS BIIF-3  (PRN 24)","OBJECT_ID":"2012-053A","EPOCH":"2026-03-03T14:52:30.879840","MEAN_MOTION":2.0056579,"ECCENTRICITY":0.01769292,"INCLINATION":53.5658,"RA_OF_ASC_NODE":147.9256,"ARG_OF_PERICENTER":64.7741,"MEAN_ANOMALY":297.0883,"EPHEMERIS_TYPE":0,"CLASSIFICATION_TYPE":"U","NORAD_CAT_ID":38833,"ELEMENT_SET_NO":999,"REV_AT_EPOCH":9732,"BSTAR":0,"MEAN_MOTION_DOT":2.0e-8,"MEAN_MOTION_DDOT":0},{"OBJECT_NAME":"GPS BIIF-4  (PRN 27)","OBJECT_ID":"2013-023A","EPOCH":"2026-03-01T23:44:03.785280","MEAN_MOTION":2.00564153,"ECCENTRICITY":0.01415529,"INCLINATION":54.5878,"RA_OF_ASC_NODE":273.3391,"ARG_OF_PERICENTER":49.8819,"MEAN_ANOMALY":311.3944,"EPHEMERIS_TYPE":0,"CLASSIFICATION_TYPE":"U","NORAD_CAT_ID":39166,"ELEMENT_SET_NO":999,"REV_AT_EPOCH":9373,"BSTAR":0,"MEAN_MOTION_DOT":6.0e-8,"MEAN_MOTION_DDOT":0},{"OBJECT_NAME":"GPS BIIF-5  (PRN 30)","OBJECT_ID":"2014-008A","EPOCH":"2026-03-02T11:39:40.334400","MEAN_MOTION":2.00552925,"ECCENTRICITY":0.00822262,"INCLINATION":53.6376,"RA_OF_ASC_NODE":153.6733,"ARG_OF_PERICENTER":228.2234,"MEAN_ANOMALY":131.0919,"EPHEMERIS_TYPE":0,"CLASSIFICATION_TYPE":"U","NORAD_CAT_ID":39533,"ELEMENT_SET_NO":999,"REV_AT_EPOCH":8754,"BSTAR":0,"MEAN_MOTION_DOT":-1.3e-7,"MEAN_MOTION_DDOT":0},{"OBJECT_NAME":"GPS BIIF-6  (PRN 06)","OBJECT_ID":"2014-026A","EPOCH":"2026-03-03T18:16:12.704160","MEAN_MOTION":2.00568709,"ECCENTRICITY":0.00398787,"INCLINATION":56.5468,"RA_OF_ASC_NODE":335.6247,"ARG_OF_PERICENTER":324.4781,"MEAN_ANOMALY":35.2898,"EPHEMERIS_TYPE":0,"CLASSIFICATION_TYPE":"U","NORAD_CAT_ID":39741,"ELEMENT_SET_NO":999,"REV_AT_EPOCH":8642,"BSTAR":0,"MEAN_MOTION_DOT":-9.7e-7,"MEAN_MOTION_DDOT":0}]
